start=new Date('2023-04-25T00:00:00.000Z').valueOf();
sats=[{"LAUNCH_DATE":"2022-02-25","CLASSIFICATION_TYPE":"U","SEMIMAJOR_AXIS":"6917.781","ELEMENT_SET_NO":"999","COUNTRY_CODE":"US","TLE_LINE1":"1 51813U 22017AX  23114.11678575  .00013777  00000-0  88120-3 0  9998","ECCENTRICITY":"0.00013370","MEAN_ANOMALY":"279.5783","TLE_LINE2":"2 51813  53.2180   5.3528 0001337  80.5360 279.5783 15.08872614 65596","REV_AT_EPOCH":"6559","OBJECT_ID":"2022-017AX","REF_FRAME":"TEME","APOAPSIS":"540.571","MEAN_MOTION_DDOT":"0.0000000000000","GP_ID":"230664820","BSTAR":"0.00088120000000","OBJECT_TYPE":"PAYLOAD","NORAD_CAT_ID":"51813","EPHEMERIS_TYPE":"0","FILE":"3892852","DECAY_DATE":null,"RCS_SIZE":"LARGE","PERIOD":"95.435","EPOCH":"2023-04-24T02:48:10.288800","MEAN_MOTION_DOT":"0.00013777","MEAN_MOTION":"15.08872614","OBJECT_NAME":"STARLINK-3552","INCLINATION":"53.2180","TIME_SYSTEM":"UTC","CENTER_NAME":"EARTH","RA_OF_ASC_NODE":"5.3528","SITE":"AFWTR","MEAN_ELEMENT_THEORY":"SGP4","PERIAPSIS":"538.721","ARG_OF_PERICENTER":"80.5360"},{"MEAN_MOTION_DDOT":"0.0000000000000","OBJECT_ID":"2022-017AY","REV_AT_EPOCH":"6560","TLE_LINE2":"2 51814  53.2173   5.2747 0001372  96.4307 263.6841 15.08891973 65607","REF_FRAME":"TEME","APOAPSIS":"540.536","FILE":"3892849","DECAY_DATE":null,"GP_ID":"230664762","OBJECT_TYPE":"PAYLOAD","NORAD_CAT_ID":"51814","BSTAR":"0.00273200000000","EPHEMERIS_TYPE":"0","SEMIMAJOR_AXIS":"6917.722","ELEMENT_SET_NO":"999","CLASSIFICATION_TYPE":"U","LAUNCH_DATE":"2022-02-25","MEAN_ANOMALY":"263.6841","COUNTRY_CODE":"US","ECCENTRICITY":"0.00013720","TLE_LINE1":"1 51814U 22017AY  23114.12782430  .00043523  00000-0  27320-2 0  9992","RA_OF_ASC_NODE":"5.2747","SITE":"AFWTR","TIME_SYSTEM":"UTC","CENTER_NAME":"EARTH","PERIAPSIS":"538.637","ARG_OF_PERICENTER":"96.4307","MEAN_ELEMENT_THEORY":"SGP4","PERIOD":"95.434","RCS_SIZE":"LARGE","INCLINATION":"53.2173","OBJECT_NAME":"STARLINK-3599","MEAN_MOTION":"15.08891973","EPOCH":"2023-04-24T03:04:04.019520","MEAN_MOTION_DOT":"0.00043523"},{"PERIAPSIS":"538.868","ARG_OF_PERICENTER":"89.8841","MEAN_ELEMENT_THEORY":"SGP4","SITE":"AFWTR","RA_OF_ASC_NODE":"2.5823","CENTER_NAME":"EARTH","TIME_SYSTEM":"UTC","OBJECT_NAME":"STARLINK-3604","INCLINATION":"53.2168","MEAN_MOTION":"15.08898073","MEAN_MOTION_DOT":"0.00031130","EPOCH":"2023-04-24T17:27:49.182912","PERIOD":"95.434","RCS_SIZE":"LARGE","FILE":"3893377","DECAY_DATE":null,"NORAD_CAT_ID":"51815","OBJECT_TYPE":"PAYLOAD","BSTAR":"0.00196230000000","EPHEMERIS_TYPE":"0","GP_ID":"230703287","MEAN_MOTION_DDOT":"0.0000000000000","APOAPSIS":"540.268","REF_FRAME":"TEME","REV_AT_EPOCH":"6569","OBJECT_ID":"2022-017AZ","TLE_LINE2":"2 51815  53.2168   2.5823 0001012  89.8841 270.2267 15.08898073 65690","MEAN_ANOMALY":"270.2267","ECCENTRICITY":"0.00010120","TLE_LINE1":"1 51815U 22017AZ  23114.72765258  .00031130  00000-0  19623-2 0  9996","COUNTRY_CODE":"US","ELEMENT_SET_NO":"999","SEMIMAJOR_AXIS":"6917.703","CLASSIFICATION_TYPE":"U","LAUNCH_DATE":"2022-02-25"},{"MEAN_ANOMALY":"274.6754","COUNTRY_CODE":"US","ECCENTRICITY":"0.00013340","TLE_LINE1":"1 51816U 22017BA  23113.99167258  .00000143  00000-0  27057-4 0  9993","SEMIMAJOR_AXIS":"6917.875","ELEMENT_SET_NO":"999","LAUNCH_DATE":"2022-02-25","CLASSIFICATION_TYPE":"U","DECAY_DATE":null,"FILE":"3893330","GP_ID":"230698827","EPHEMERIS_TYPE":"0","OBJECT_TYPE":"PAYLOAD","BSTAR":"0.00002705700000","NORAD_CAT_ID":"51816","MEAN_MOTION_DDOT":"0.0000000000000","OBJECT_ID":"2022-017BA","REV_AT_EPOCH":"6551","TLE_LINE2":"2 51816  53.2195   5.8888 0001334  85.4391 274.6754 15.08841911 65516","APOAPSIS":"540.662","REF_FRAME":"TEME","INCLINATION":"53.2195","OBJECT_NAME":"STARLINK-3603","MEAN_MOTION":"15.08841911","EPOCH":"2023-04-23T23:48:00.510912","MEAN_MOTION_DOT":"0.00000143","PERIOD":"95.437","RCS_SIZE":"MEDIUM","PERIAPSIS":"538.817","MEAN_ELEMENT_THEORY":"SGP4","ARG_OF_PERICENTER":"85.4391","RA_OF_ASC_NODE":"5.8888","SITE":"AFWTR","TIME_SYSTEM":"UTC","CENTER_NAME":"EARTH"},{"ARG_OF_PERICENTER":"11.6779","PERIAPSIS":"311.524","MEAN_ELEMENT_THEORY":"SGP4","TIME_SYSTEM":"UTC","CENTER_NAME":"EARTH","RA_OF_ASC_NODE":"195.8115","SITE":"AFWTR","EPOCH":"2023-04-24T14:00:01.000224","MEAN_MOTION_DOT":"0.00218160","OBJECT_NAME":"STARLINK-3596","INCLINATION":"53.1786","MEAN_MOTION":"15.84976132","RCS_SIZE":"LARGE","PERIOD":"90.853","GP_ID":"230670144","BSTAR":"0.00089041000000","OBJECT_TYPE":"PAYLOAD","NORAD_CAT_ID":"51817","EPHEMERIS_TYPE":"0","FILE":"3893094","DECAY_DATE":null,"OBJECT_ID":"2022-017BB","REV_AT_EPOCH":"6799","TLE_LINE2":"2 51817  53.1786 195.8115 0007274  11.6779 284.7732 15.84976132 67995","APOAPSIS":"321.264","REF_FRAME":"TEME","MEAN_MOTION_DDOT":"0.0000000000000","COUNTRY_CODE":"US","ECCENTRICITY":"0.00072740","TLE_LINE1":"1 51817U 22017BB  23114.58334491  .00218160  00000-0  89041-3 0  9995","MEAN_ANOMALY":"284.7732","LAUNCH_DATE":"2022-02-25","CLASSIFICATION_TYPE":"U","SEMIMAJOR_AXIS":"6694.529","ELEMENT_SET_NO":"999"},{"OBJECT_ID":"2022-022A","REV_AT_EPOCH":"6317","TLE_LINE2":"2 51852  53.2187  54.8627 0001719  74.4587 285.6595 15.08860571 63172","REF_FRAME":"TEME","APOAPSIS":"540.872","MEAN_MOTION_DDOT":"0.0000000000000","GP_ID":"230700081","BSTAR":"0.00027762000000","OBJECT_TYPE":"PAYLOAD","NORAD_CAT_ID":"51852","EPHEMERIS_TYPE":"0","DECAY_DATE":null,"FILE":"3893330","LAUNCH_DATE":"2022-03-03","CLASSIFICATION_TYPE":"U","SEMIMAJOR_AXIS":"6917.818","ELEMENT_SET_NO":"999","COUNTRY_CODE":"US","ECCENTRICITY":"0.00017190","TLE_LINE1":"1 51852U 22022A   23114.21890212  .00004135  00000-0  27762-3 0  9995","MEAN_ANOMALY":"285.6595","TIME_SYSTEM":"UTC","CENTER_NAME":"EARTH","RA_OF_ASC_NODE":"54.8627","SITE":"AFETR","PERIAPSIS":"538.493","MEAN_ELEMENT_THEORY":"SGP4","ARG_OF_PERICENTER":"74.4587","RCS_SIZE":"LARGE","PERIOD":"95.436","EPOCH":"2023-04-24T05:15:13.143168","MEAN_MOTION_DOT":"0.00004135","INCLINATION":"53.2187","OBJECT_NAME":"STARLINK-3542","MEAN_MOTION":"15.08860571"},{"PERIOD":"95.436","RCS_SIZE":"LARGE","MEAN_MOTION":"15.08864915","INCLINATION":"53.2198","OBJECT_NAME":"STARLINK-3539","MEAN_MOTION_DOT":"0.00002817","EPOCH":"2023-04-24T05:21:53.336736","SITE":"AFETR","RA_OF_ASC_NODE":"54.8537","CENTER_NAME":"EARTH","TIME_SYSTEM":"UTC","ARG_OF_PERICENTER":"78.6686","PERIAPSIS":"538.754","MEAN_ELEMENT_THEORY":"SGP4","ELEMENT_SET_NO":"999","SEMIMAJOR_AXIS":"6917.804","LAUNCH_DATE":"2022-03-03","CLASSIFICATION_TYPE":"U","MEAN_ANOMALY":"281.4454","TLE_LINE1":"1 51853U 22022B   23114.22353399  .00002817  00000-0  19490-3 0  9991","ECCENTRICITY":"0.00013230","COUNTRY_CODE":"US","MEAN_MOTION_DDOT":"0.0000000000000","REF_FRAME":"TEME","APOAPSIS":"540.584","TLE_LINE2":"2 51853  53.2198  54.8537 0001323  78.6686 281.4454 15.08864915 64379","OBJECT_ID":"2022-022B","REV_AT_EPOCH":"6437","DECAY_DATE":null,"FILE":"3893330","BSTAR":"0.00019490000000","OBJECT_TYPE":"PAYLOAD","NORAD_CAT_ID":"51853","EPHEMERIS_TYPE":"0","GP_ID":"230698831"},{"EPOCH":"2023-04-24T06:45:17.781120","MEAN_MOTION_DOT":"0.00004506","MEAN_MOTION":"15.08864292","INCLINATION":"53.2170","OBJECT_NAME":"STARLINK-3541","RCS_SIZE":"LARGE","PERIOD":"95.436","PERIAPSIS":"538.826","ARG_OF_PERICENTER":"100.6155","MEAN_ELEMENT_THEORY":"SGP4","TIME_SYSTEM":"UTC","CENTER_NAME":"EARTH","RA_OF_ASC_NODE":"54.5835","SITE":"AFETR","COUNTRY_CODE":"US","TLE_LINE1":"1 51854U 22022C   23114.28145580  .00004506  00000-0  30079-3 0  9992","ECCENTRICITY":"0.00012210","MEAN_ANOMALY":"259.4975","LAUNCH_DATE":"2022-03-03","CLASSIFICATION_TYPE":"U","SEMIMAJOR_AXIS":"6917.806","ELEMENT_SET_NO":"999","GP_ID":"230699081","EPHEMERIS_TYPE":"0","OBJECT_TYPE":"PAYLOAD","BSTAR":"0.00030079000000","NORAD_CAT_ID":"51854","FILE":"3893330","DECAY_DATE":null,"TLE_LINE2":"2 51854  53.2170  54.5835 0001221 100.6155 259.4975 15.08864292 64441","OBJECT_ID":"2022-022C","REV_AT_EPOCH":"6444","REF_FRAME":"TEME","APOAPSIS":"540.516","MEAN_MOTION_DDOT":"0.0000000000000"},{"MEAN_MOTION":"15.09604903","OBJECT_NAME":"STARLINK-3545","INCLINATION":"53.2184","EPOCH":"2023-04-24T17:41:03.804576","MEAN_MOTION_DOT":"0.00091306","PERIOD":"95.389","RCS_SIZE":"LARGE","ARG_OF_PERICENTER":"313.9546","PERIAPSIS":"533.514","MEAN_ELEMENT_THEORY":"SGP4","RA_OF_ASC_NODE":"52.5530","SITE":"AFETR","TIME_SYSTEM":"UTC","CENTER_NAME":"EARTH","MEAN_ANOMALY":"46.0982","COUNTRY_CODE":"US","TLE_LINE1":"1 51855U 22022D   23114.73684959  .00091306  00000-0  55624-2 0  9997","ECCENTRICITY":"0.00056310","SEMIMAJOR_AXIS":"6915.543","ELEMENT_SET_NO":"999","LAUNCH_DATE":"2022-03-03","CLASSIFICATION_TYPE":"U","DECAY_DATE":null,"FILE":"3893484","GP_ID":"230705953","OBJECT_TYPE":"PAYLOAD","NORAD_CAT_ID":"51855","BSTAR":"0.00556240000000","EPHEMERIS_TYPE":"0","MEAN_MOTION_DDOT":"0.0000000000000","TLE_LINE2":"2 51855  53.2184  52.5530 0005631 313.9546  46.0982 15.09604903 64461","OBJECT_ID":"2022-022D","REV_AT_EPOCH":"6446","REF_FRAME":"TEME","APOAPSIS":"541.303"},{"CENTER_NAME":"EARTH","TIME_SYSTEM":"UTC","SITE":"AFETR","RA_OF_ASC_NODE":"54.8976","MEAN_ELEMENT_THEORY":"SGP4","PERIAPSIS":"538.858","ARG_OF_PERICENTER":"92.3496","RCS_SIZE":"LARGE","PERIOD":"95.436","MEAN_MOTION_DOT":"0.00004295","EPOCH":"2023-04-24T05:04:36.601536","MEAN_MOTION":"15.08869462","INCLINATION":"53.2182","OBJECT_NAME":"STARLINK-3568","APOAPSIS":"540.453","REF_FRAME":"TEME","TLE_LINE2":"2 51856  53.2182  54.8976 0001153  92.3496 267.7628 15.08869462 64467","REV_AT_EPOCH":"6446","OBJECT_ID":"2022-022E","MEAN_MOTION_DDOT":"0.0000000000000","NORAD_CAT_ID":"51856","OBJECT_TYPE":"PAYLOAD","BSTAR":"0.00028753000000","EPHEMERIS_TYPE":"0","GP_ID":"230700582","FILE":"3893330","DECAY_DATE":null,"LAUNCH_DATE":"2022-03-03","CLASSIFICATION_TYPE":"U","ELEMENT_SET_NO":"999","SEMIMAJOR_AXIS":"6917.790","TLE_LINE1":"1 51856U 22022E   23114.21153474  .00004295  00000-0  28753-3 0  9999","ECCENTRICITY":"0.00011530","COUNTRY_CODE":"US","MEAN_ANOMALY":"267.7628"}];
